STARLINK-1093
1 24970C 20001BJ  21325.07084149  .00035049  00000-0  23480-2 0  3256
2 24970  53.0529 152.9185 0002006  82.2835 143.3359 15.06367259    10
